{
  "type": "FeatureCollection",
  "features": [
    {
      "type": "Feature",
      "properties": {
        "norad_id": 66323,
        "name": "STARLINK-35309",
        "group": "last-30-days",
        "lat": -28.171946517676904,
        "lon": -111.49409619581779,
        "alt_km": 416.24496737507343,
        "timestamp": "2025-12-04T09:47:36.300406+00:00",
        "meta_object_name": "STARLINK-35309",
        "meta_object_id": "2025-253E",
        "meta_epoch": "2025-12-03T12:44:13.575552",
        "meta_mean_motion": 15.5062735,
        "meta_eccentricity": 0.00017369,
        "meta_inclination": 42.9999,
        "meta_ra_of_asc_node": 38.5588,
        "meta_arg_of_pericenter": 269.0685,
        "meta_mean_anomaly": 90.9976,
        "meta_ephemeris_type": 0,
        "meta_classification_type": "U",
        "meta_norad_cat_id": 66323,
        "meta_element_set_no": 999,
        "meta_rev_at_epoch": 550,
        "meta_bstar": 0.0016514731,
        "meta_mean_motion_dot": 0.00097932,
        "meta_mean_motion_ddot": 0,
        "tle_line1": "1 66323U 25253E   25337.53071268  .00097932  00000+0  16515-2 0  9998",
        "tle_line2": "2 66323  42.9999  38.5588 0001736 269.0685  90.9976 15.50627350  5508"
      },
      "geometry": {
        "type": "Point",
        "coordinates": [
          -111.49409619581779,
          -28.171946517676904
        ]
      }
    },
    {
      "type": "Feature",
      "properties": {
        "norad_id": 66324,
        "name": "STARLINK-35506",
        "group": "last-30-days",
        "lat": -23.533357343390414,
        "lon": -118.6938208872955,
        "alt_km": 416.87290637551723,
        "timestamp": "2025-12-04T09:47:36.300417+00:00",
        "meta_object_name": "STARLINK-35506",
        "meta_object_id": "2025-253F",
        "meta_epoch": "2025-12-03T12:46:12.432576",
        "meta_mean_motion": 15.5059009,
        "meta_eccentricity": 8.705e-05,
        "meta_inclination": 43.0006,
        "meta_ra_of_asc_node": 38.5692,
        "meta_arg_of_pericenter": 276.2742,
        "meta_mean_anomaly": 83.8019,
        "meta_ephemeris_type": 0,
        "meta_classification_type": "U",
        "meta_norad_cat_id": 66324,
        "meta_element_set_no": 999,
        "meta_rev_at_epoch": 550,
        "meta_bstar": 0.00045167229,
        "meta_mean_motion_dot": 0.00026255,
        "meta_mean_motion_ddot": 0,
        "tle_line1": "1 66324U 25253F   25337.53208834  .00026255  00000+0  45167-3 0  9996",
        "tle_line2": "2 66324  43.0006  38.5692 0000870 276.2742  83.8019 15.50590090  5507"
      },
      "geometry": {
        "type": "Point",
        "coordinates": [
          -118.6938208872955,
          -23.533357343390414
        ]
      }
    },
    {
      "type": "Feature",
      "properties": {
        "norad_id": 66325,
        "name": "STARLINK-35504",
        "group": "last-30-days",
        "lat": 14.640679290507803,
        "lon": -162.69530913049394,
        "alt_km": 442.65797774179464,
        "timestamp": "2025-12-04T09:47:36.300432+00:00",
        "meta_object_name": "STARLINK-35504",
        "meta_object_id": "2025-253G",
        "meta_epoch": "2025-12-03T22:00:03.000096",
        "meta_mean_motion": 15.40718243,
        "meta_eccentricity": 0.00013875,
        "meta_inclination": 43.0007,
        "meta_ra_of_asc_node": 36.417,
        "meta_arg_of_pericenter": 295.3459,
        "meta_mean_anomaly": 14.3045,
        "meta_ephemeris_type": 0,
        "meta_classification_type": "U",
        "meta_norad_cat_id": 66325,
        "meta_element_set_no": 999,
        "meta_rev_at_epoch": 551,
        "meta_bstar": -0.0020699771,
        "meta_mean_motion_dot": -0.00085857,
        "meta_mean_motion_ddot": 0,
        "tle_line1": "1 66325U 25253G   25337.91670139 -.00085857  00000+0 -20700-2 0  9990",
        "tle_line2": "2 66325  43.0007  36.4170 0001387 295.3459  14.3045 15.40718243  5518"
      },
      "geometry": {
        "type": "Point",
        "coordinates": [
          -162.69530913049394,
          14.640679290507803
        ]
      }
    },
    {
      "type": "Feature",
      "properties": {
        "norad_id": 66326,
        "name": "STARLINK-35479",
        "group": "last-30-days",
        "lat": -29.170502637925498,
        "lon": -109.78159513292394,
        "alt_km": 416.5167176400282,
        "timestamp": "2025-12-04T09:47:36.300443+00:00",
        "meta_object_name": "STARLINK-35479",
        "meta_object_id": "2025-253H",
        "meta_epoch": "2025-12-03T15:49:14.832480",
        "meta_mean_motion": 15.50617936,
        "meta_eccentricity": 0.00011664,
        "meta_inclination": 43.0004,
        "meta_ra_of_asc_node": 37.8005,
        "meta_arg_of_pericenter": 257.339,
        "meta_mean_anomaly": 102.734,
        "meta_ephemeris_type": 0,
        "meta_classification_type": "U",
        "meta_norad_cat_id": 66326,
        "meta_element_set_no": 999,
        "meta_rev_at_epoch": 552,
        "meta_bstar": 0.0016625411,
        "meta_mean_motion_dot": 0.00098564,
        "meta_mean_motion_ddot": 0,
        "tle_line1": "1 66326U 25253H   25337.65919945  .00098564  00000+0  16625-2 0  9991",
        "tle_line2": "2 66326  43.0004  37.8005 0001166 257.3390 102.7340 15.50617936  5524"
      },
      "geometry": {
        "type": "Point",
        "coordinates": [
          -109.78159513292394,
          -29.170502637925498
        ]
      }
    },
    {
      "type": "Feature",
      "properties": {
        "norad_id": 66327,
        "name": "STARLINK-35507",
        "group": "last-30-days",
        "lat": -22.619932267050082,
        "lon": -119.99019004638326,
        "alt_km": 417.10126912870874,
        "timestamp": "2025-12-04T09:47:36.300457+00:00",
        "meta_object_name": "STARLINK-35507",
        "meta_object_id": "2025-253J",
        "meta_epoch": "2025-12-03T12:46:42.428928",
        "meta_mean_motion": 15.50619877,
        "meta_eccentricity": 0.00014974,
        "meta_inclination": 43.0002,
        "meta_ra_of_asc_node": 38.5738,
        "meta_arg_of_pericenter": 351.1702,
        "meta_mean_anomaly": 8.9131,
        "meta_ephemeris_type": 0,
        "meta_classification_type": "U",
        "meta_norad_cat_id": 66327,
        "meta_element_set_no": 999,
        "meta_rev_at_epoch": 550,
        "meta_bstar": 0.0024915595,
        "meta_mean_motion_dot": 0.00148855,
        "meta_mean_motion_ddot": 0,
        "tle_line1": "1 66327U 25253J   25337.53243552  .00148855  00000+0  24916-2 0  9994",
        "tle_line2": "2 66327  43.0002  38.5738 0001497 351.1702   8.9131 15.50619877  5500"
      },
      "geometry": {
        "type": "Point",
        "coordinates": [
          -119.99019004638326,
          -22.619932267050082
        ]
      }
    },
    {
      "type": "Feature",
      "properties": {
        "norad_id": 66328,
        "name": "STARLINK-35460",
        "group": "last-30-days",
        "lat": 6.3422731777433725,
        "lon": -153.29820084293132,
        "alt_km": 443.29830261976986,
        "timestamp": "2025-12-04T09:47:36.300468+00:00",
        "meta_object_name": "STARLINK-35460",
        "meta_object_id": "2025-253K",
        "meta_epoch": "2025-12-03T22:00:03.000096",
        "meta_mean_motion": 15.40708749,
        "meta_eccentricity": 0.00016231,
        "meta_inclination": 43.0006,
        "meta_ra_of_asc_node": 36.384,
        "meta_arg_of_pericenter": 265.0223,
        "meta_mean_anomaly": 57.0753,
        "meta_ephemeris_type": 0,
        "meta_classification_type": "U",
        "meta_norad_cat_id": 66328,
        "meta_element_set_no": 999,
        "meta_rev_at_epoch": 560,
        "meta_bstar": -0.0018371789,
        "meta_mean_motion_dot": -0.00076307,
        "meta_mean_motion_ddot": 0,
        "tle_line1": "1 66328U 25253K   25337.91670139 -.00076307  00000+0 -18372-2 0  9995",
        "tle_line2": "2 66328  43.0006  36.3840 0001623 265.0223  57.0753 15.40708749  5609"
      },
      "geometry": {
        "type": "Point",
        "coordinates": [
          -153.29820084293132,
          6.3422731777433725
        ]
      }
    },
    {
      "type": "Feature",
      "properties": {
        "norad_id": 66329,
        "name": "STARLINK-35505",
        "group": "last-30-days",
        "lat": -21.501522454856943,
        "lon": -121.538077968243,
        "alt_km": 415.5629713381204,
        "timestamp": "2025-12-04T09:47:36.300481+00:00",
        "meta_object_name": "STARLINK-35505",
        "meta_object_id": "2025-253L",
        "meta_epoch": "2025-12-03T12:47:11.075712",
        "meta_mean_motion": 15.50665124,
        "meta_eccentricity": 0.00023019,
        "meta_inclination": 43,
        "meta_ra_of_asc_node": 38.5759,
        "meta_arg_of_pericenter": 270.1873,
        "meta_mean_anomaly": 89.8723,
        "meta_ephemeris_type": 0,
        "meta_classification_type": "U",
        "meta_norad_cat_id": 66329,
        "meta_element_set_no": 999,
        "meta_rev_at_epoch": 550,
        "meta_bstar": 0.0020206657,
        "meta_mean_motion_dot": 0.00120414,
        "meta_mean_motion_ddot": 0,
        "tle_line1": "1 66329U 25253L   25337.53276708  .00120414  00000+0  20207-2 0  9995",
        "tle_line2": "2 66329  43.0000  38.5759 0002301 270.1873  89.8723 15.50665124  5508"
      },
      "geometry": {
        "type": "Point",
        "coordinates": [
          -121.538077968243,
          -21.501522454856943
        ]
      }
    }
  ]
}